GUOWANG GROUP 21 OBJECT*
1 68656U 26076A   26099.87913331 -.00001619  00000+0 -14957-2 0  9999
2 68656  86.4930  68.0149 0007203 214.7797 145.2901 13.83112022   151
